STARLINK-2094_new
1 17375C 21005AC  21326.13524800 -.00018252  00000-0 -12230-2 0  3265
2 17375  53.0538 263.1426 0001824  65.6110 243.1074 15.06411397    19
STARLINK-2094_old
1 27375C 21005AC  21325.16387784  .00006068  00000-0  40658-3 0  3250
2 27375  53.0543 267.5030 0001811  64.9246  13.1015 15.06391290    11
